{"fetched_at":"2026-03-29T16:36:15Z","count":15609,"tles":[{"name":"STARLINK-4602","line1":"1 53629U 22104AT  26087.86032841 -.00001093  00000+0 -50604-4 0  9992","line2":"2 53629  53.2166 147.7401 0001398  91.9321 268.1831 15.08842189198654","category":"Starlink"}]}